OBJECT_NAME,OBJECT_ID,EPOCH,MEAN_MOTION,ECCENTRICITY,INCLINATION,RA_OF_ASC_NODE,ARG_OF_PERICENTER,MEAN_ANOMALY,EPHEMERIS_TYPE,CLASSIFICATION_TYPE,NORAD_CAT_ID,ELEMENT_SET_NO,REV_AT_EPOCH,BSTAR,MEAN_MOTION_DOT,MEAN_MOTION_DDOT
HIMAWARI-9,2016-064A,2021-02-06T14:17:42.666144,1.00272677,.0001035,0.0499,270.3223,98.8817,122.8851,0,U,41836,999,1557,0,-.283E-5,0
SHIJIAN-17 (SJ-17),2016-065A,2021-02-06T14:36:28.136736,1.00274085,.0006202,0.8036,93.9659,331.1928,48.3963,0,U,41838,999,1559,0,-.371E-5,0
XPNAV-1,2016-066A,2021-02-06T11:54:16.017408,15.23109906,.0013401,97.4118,46.2148,241.3221,270.3156,0,U,41841,999,23570,.33055E-4,.71E-5,0
XIAOXIANG 1,2016-066B,2021-02-06T12:07:20.717760,15.24476889,.0012874,97.4055,47.8198,239.2564,272.0610,0,U,41842,999,23584,.49033E-4,.1135E-4,0
PINA 2A,2016-066C,2021-02-06T12:58:57.324864,15.25375822,.0019616,97.4083,48.4255,259.0286,199.6641,0,U,41843,999,23587,.48958E-4,.1168E-4,0
PINA 2B,2016-066D,2021-02-06T12:59:06.171360,15.25399267,.0013209,97.4016,49.1254,236.8625,222.0124,0,U,41844,999,23594,.51856E-4,.1239E-4,0
LISHUI 1-01,2016-066E,2021-02-06T12:19:21.111456,14.57741061,.0282091,98.7290,134.1647,162.9430,198.1503,0,U,41845,999,22431,.84352E-3,.6631E-4,0
CAS-2T & KS-1Q,2016-066G,2021-02-06T02:54:31.417344,14.38142806,.0364404,98.6217,95.5856,252.2483,103.8628,0,U,41847,999,22300,.20762E-4,.63E-6,0
WORLDVIEW-4,2016-067A,2021-02-06T08:02:11.715648,15.69763457,.0003224,97.7958,170.9637,321.5227,38.5803,0,U,41848,999,23298,.17145E-3,.20259E-3,0
RAVAN,2016-067B,2021-02-06T13:25:30.463104,14.98868860,.0008148,97.9508,157.7026,168.2151,191.9263,0,U,41849,999,23168,.30246E-4,.303E-5,0
CELTEE 1,2016-067C,2021-02-06T13:51:38.299104,14.97343511,.0008829,97.9403,154.7119,182.0319,178.0868,0,U,41850,999,23153,.10363E-4,.59E-6,0
OPTICUBE 04,2016-067D,2021-02-06T06:49:31.689984,14.97041475,.0008553,97.9402,153.8950,182.0366,178.0822,0,U,41851,999,23146,-.27899E-6,-.64E-6,0
AEROCUBE 8D,2016-067E,2021-02-06T07:09:05.572224,14.97094598,.0009382,97.9398,153.7638,185.5882,174.5236,0,U,41852,999,23144,-.14819E-4,-.232E-5,0
AEROCUBE 8C,2016-067F,2021-02-06T12:51:11.116512,14.97063016,.0009924,97.9398,153.8855,182.9992,177.1171,0,U,41853,999,23147,.85403E-4,.924E-5,0
PROMETHEUS 2-1,2016-067G,2021-02-06T13:58:22.477440,14.97475828,.0010429,97.9397,154.4268,185.0690,175.0427,0,U,41854,999,23150,.45132E-4,.465E-5,0
PROMETHEUS 2-3,2016-067H,2021-02-06T13:56:37.363200,14.97490213,.0010591,97.9400,154.4704,185.7412,174.3690,0,U,41855,999,23150,.41966E-4,.428E-5,0
YUNHAI 1,2016-068A,2021-02-06T12:38:48.328800,14.32713661,.0016321,98.5694,39.7274,14.9716,345.1948,0,U,41857,999,22162,.66565E-4,.138E-5,0
GSAT0207 (GALILEO 15),2016-069A,2021-02-06T11:44:46.227552,1.70473549,.0002911,54.6924,155.3440,297.6492,62.2867,0,U,41859,999,2620,0,-.1E-6,0
GSAT0212 (GALILEO 16),2016-069B,2021-02-06T08:13:43.688928,1.70473575,.0002121,54.6907,155.3469,337.6478,22.3091,0,U,41860,999,2629,0,-.8E-7,0
GSAT0213 (GALILEO 17),2016-069C,2021-02-05T12:50:58.718112,1.70473580,.0002473,54.6931,155.3737,261.4560,98.4864,0,U,41861,999,2628,0,.1E-7,0
GSAT0214 (GALILEO 18),2016-069D,2021-02-05T02:18:04.301568,1.70473679,.0001585,54.6907,155.3809,266.8408,93.1135,0,U,41862,999,2626,0,.6E-7,0
GOES 16,2016-071A,2021-02-06T13:10:05.552832,1.00272872,.000131,0.0370,268.4113,88.6440,262.1404,0,U,41866,999,1549,0,-.255E-5,0
TIANLIAN 1-04,2016-072A,2021-02-06T14:09:42.528384,1.00267349,.0017429,0.1298,262.4719,185.9852,77.7058,0,U,41869,999,1570,0,.23E-6,0
LEMUR-2-XIAOQING,2016-062C,2021-02-06T13:25:05.409696,15.27985628,.0005113,51.6388,218.6365,335.2314,24.8419,0,U,41871,999,23399,.88369E-4,.2095E-4,0
LEMUR-2-SOKOLSKY,2016-062D,2021-02-06T13:18:15.407136,15.27790696,.0003374,51.6811,225.6745,83.7125,276.4239,0,U,41872,999,23396,.48498E-4,.983E-5,0
LEMUR-2-ANUBHAVTHAKUR,2016-062E,2021-02-06T13:51:15.845472,15.24179398,.0007982,51.6816,244.7921,312.9658,47.0651,0,U,41873,999,23365,.72138E-4,.1441E-4,0
LEMUR-2-WINGO,2016-062F,2021-02-06T13:07:14.191392,15.27361114,.0010628,51.6498,225.3373,245.9595,114.0272,0,U,41874,999,23390,.53703E-4,.1107E-4,0
GOKTURK 1A,2016-073A,2021-02-06T13:15:08.335584,14.62773752,.0001358,98.1311,294.5397,68.5869,291.5474,0,U,41875,999,22278,.20459E-4,.58E-6,0
RESOURCESAT-2A,2016-074A,2021-02-06T11:13:22.528704,14.21601629,.000131,98.7710,112.3373,96.1178,264.0155,0,U,41877,999,21629,.24732E-4,.1E-6,0
WGS F8 (USA 272),2016-075A,2021-02-06T13:36:29.420352,1.00266914,.0000352,0.0198,76.9896,316.8253,97.0114,0,U,41879,999,1521,0,-.211E-5,0
FENGYUN 4A,2016-077A,2021-02-06T15:43:11.325216,1.00267554,.0005053,0.0845,86.7613,339.0149,51.6109,0,U,41882,999,1536,0,-.337E-5,0
CYGFM05,2016-078A,2021-02-06T08:02:18.034944,15.14874096,.0015891,34.9573,46.9377,332.7013,27.2863,0,U,41884,999,22954,.24847E-4,.441E-5,0
CYGFM04,2016-078B,2021-02-06T08:34:36.094944,15.15380890,.0014138,34.9506,38.7203,344.6676,15.3606,0,U,41885,999,22957,.24246E-4,.436E-5,0
CYGFM02,2016-078C,2021-02-06T09:59:44.545920,15.15379781,.0014919,34.9598,40.2519,340.8416,19.1733,0,U,41886,999,22964,.23772E-4,.426E-5,0
CYGFM01,2016-078D,2021-02-06T09:34:22.929600,15.14668709,.0016352,34.9541,48.0440,333.6197,26.3681,0,U,41887,999,22950,.24546E-4,.433E-5,0
CYGFM08,2016-078E,2021-02-06T09:24:34.652736,15.15083765,.0015424,34.9512,42.8833,341.5736,18.4415,0,U,41888,999,22962,.24767E-4,.442E-5,0
CYGFM06,2016-078F,2021-02-06T09:30:29.556288,15.15370241,.001388,34.9591,39.0703,340.2645,19.7528,0,U,41889,999,22960,.2444E-4,.439E-5,0
CYGFM07,2016-078G,2021-02-06T08:59:40.450272,15.15369764,.00136,34.9531,38.1895,343.6188,16.4083,0,U,41890,999,22959,.25336E-4,.457E-5,0
CYGFM03,2016-078H,2021-02-06T08:54:41.518368,15.15356230,.001312,34.9563,38.5308,342.0289,17.9958,0,U,41891,999,22959,.24759E-4,.445E-5,0
ECHOSTAR 19,2016-079A,2021-02-06T13:28:54.684192,1.00269505,.0001153,0.0178,98.1727,224.7760,279.0611,0,U,41893,999,1509,0,-.145E-5,0
ARASE (ERG),2016-080A,2021-02-06T12:11:37.156416,2.53896610,.701949,31.7158,59.1504,303.0361,8.1134,0,U,41896,999,3830,.38526E-3,.138E-5,0
TANSAT,2016-081A,2021-02-06T11:37:07.652640,14.56821790,.0020192,98.3105,344.0192,231.9968,127.9404,0,U,41898,999,21948,.36523E-4,.117E-5,0
YIJIAN,2016-081B,2021-02-06T10:16:03.346464,14.56525060,.0021148,98.3051,342.9723,233.0292,126.8971,0,U,41899,999,21943,.26761E-4,.72E-6,0
SPARK 1,2016-081C,2021-02-06T10:14:52.161504,14.55567892,.0024148,98.3081,341.5202,235.0942,124.7980,0,U,41900,999,21929,.23745E-4,.57E-6,0
SPARK 2,2016-081D,2021-02-06T10:16:44.996448,14.55242851,.0025784,98.3029,340.1169,235.3109,124.5661,0,U,41901,999,21924,.26563E-4,.69E-6,0
JCSAT-15,2016-082A,2021-02-06T11:10:08.837184,1.00270643,.0001399,0.0182,97.5232,237.0261,79.8359,0,U,41903,999,1513,0,-.358E-5,0
STAR ONE D1,2016-082B,2021-02-06T13:07:34.809024,1.00269614,.000197,0.0331,267.9282,59.0444,282.7761,0,U,41904,999,1515,0,-.217E-5,0
SUPERVIEW-1 01,2016-083A,2021-02-06T12:50:42.639936,15.15193885,.0016013,97.5091,125.6224,139.9098,344.9831,0,U,41907,999,22721,.35783E-4,.607E-5,0
SUPERVIEW-1 02,2016-083B,2021-02-06T13:42:40.039200,15.15175917,.0015154,97.4261,113.5832,136.2846,337.0070,0,U,41908,999,22722,.29719E-4,.494E-5,0
TJS-2,2017-001A,2021-02-06T14:20:24.884736,1.00268589,.0008376,0.1625,284.5559,42.2962,132.6343,0,U,41911,999,1510,0,-.349E-5,0
XINGYUN SHIYAN-1,2017-002A,2021-02-06T13:15:49.691808,15.12432109,.0012487,97.3684,98.3247,176.6910,320.2150,0,U,41913,999,22489,.73539E-4,.1217E-4,0
JILIN-1-03,2017-002B,2021-02-06T12:20:57.446592,15.10173208,.0011639,97.3616,94.9408,188.7688,281.8213,0,U,41914,999,22470,.15815E-4,.197E-5,0
KAIDUN 1,2017-002C,2021-02-06T12:33:10.039968,15.11960914,.0009695,97.3663,98.6465,186.9588,280.9925,0,U,41915,999,22492,.27457E-4,.409E-5,0
IRIDIUM 106,2017-003A,2021-02-06T12:10:18.287040,14.34216536,.0001845,86.4012,186.1759,104.1848,255.9553,0,U,41917,999,21275,.19939E-4,.76E-6,0
IRIDIUM 103,2017-003B,2021-02-06T11:52:01.718976,14.34215799,.0001806,86.4013,186.0877,84.8005,275.3397,0,U,41918,999,21278,.13378E-4,.57E-6,0
IRIDIUM 109,2017-003C,2021-02-06T12:01:10.512768,14.34216892,.0001955,86.4013,186.1119,92.9666,267.1753,0,U,41919,999,21274,.20489E-4,.77E-6,0
IRIDIUM 102,2017-003D,2021-02-06T11:15:30.739392,14.34218407,.0002227,86.4011,186.0909,89.2613,270.8838,0,U,41920,999,21282,.20706E-4,.78E-6,0
IRIDIUM 105,2017-003E,2021-02-06T13:54:20.572992,14.34216359,.0001651,86.4022,154.4905,111.1712,248.9660,0,U,41921,999,21469,.20201E-4,.76E-6,0
IRIDIUM 104,2017-003F,2021-02-06T11:33:46.667232,14.34218609,.0001773,86.4014,186.0986,99.9860,260.1536,0,U,41922,999,21281,.20076E-4,.76E-6,0
IRIDIUM 114,2017-003G,2021-02-06T11:42:54.113184,14.34216877,.0002285,86.4012,186.0848,100.8720,259.2733,0,U,41923,999,21281,.22682E-4,.83E-6,0
IRIDIUM 108,2017-003H,2021-02-06T14:04:06.758976,14.34218763,.0002021,86.4016,154.4935,106.7272,253.4146,0,U,41924,999,21466,.20097E-4,.76E-6,0
IRIDIUM 112,2017-003J,2021-02-06T11:24:37.882944,14.34216565,.0002458,86.4008,186.0247,95.9901,264.1575,0,U,41925,999,21282,.19972E-4,.76E-6,0
IRIDIUM 111,2017-003K,2021-02-06T11:06:22.502016,14.34216547,.0001798,86.4010,186.0581,87.8979,272.2423,0,U,41926,999,21279,.21293E-4,.79E-6,0
SBIRS GEO-4 (USA 273),2017-004A,2021-02-06T14:26:34.645632,1.00273123,.0001438,3.3212,312.6890,13.2821,228.2003,0,U,41937,999,1498,0,.127E-5,0
HISPASAT 36W-1,2017-006A,2021-02-06T09:54:37.685952,1.00270500,.0000993,0.0087,24.2686,293.3568,291.7694,0,U,41942,999,1461,0,-.251E-5,0
TELKOM 3S,2017-007A,2021-02-06T14:37:07.682880,1.00272447,.0002225,0.0135,80.7407,234.0562,159.3998,0,U,41944,999,1452,0,-.37E-5,0
INTELSAT 32E (IS-32E),2017-007B,2021-02-06T09:52:37.091424,1.00268678,.0000623,0.0173,93.3819,87.7220,60.6063,0,U,41945,999,1461,0,-.276E-5,0
CARTOSAT-2D,2017-008A,2021-02-06T09:45:11.040192,15.19252700,.0005918,97.4608,99.5039,255.3573,104.7020,0,U,41948,999,22048,.30524E-4,.575E-5,0
